[{"OBJECT_NAME":"LEMUR-2-JK0903EM1407","OBJECT_ID":"2023-174CJ","EPOCH":"2026-02-01T22:28:51.003552","MEAN_MOTION":15.4472715,"ECCENTRICITY":0.00051325,"INCLINATION":97.3975,"RA_OF_ASC_NODE":120.3296,"ARG_OF_PERICENTER":240.5161,"MEAN_ANOMALY":119.5576,"EPHEMERIS_TYPE":0,"CLASSIFICATION_TYPE":"U","NORAD_CAT_ID":58336,"ELEMENT_SET_NO":999,"REV_AT_EPOCH":12480,"BSTAR":0.00047365566,"MEAN_MOTION_DOT":0.00022078,"MEAN_MOTION_DDOT":0},{"OBJECT_NAME":"LEMUR-2-MJR092620","OBJECT_ID":"2023-174CN","EPOCH":"2026-02-01T22:29:54.461760","MEAN_MOTION":15.41116369,"ECCENTRICITY":0.00058331,"INCLINATION":97.4043,"RA_OF_ASC_NODE":120.8719,"ARG_OF_PERICENTER":240.6028,"MEAN_ANOMALY":119.4637,"EPHEMERIS_TYPE":0,"CLASSIFICATION_TYPE":"U","NORAD_CAT_ID":58340,"ELEMENT_SET_NO":999,"REV_AT_EPOCH":12479,"BSTAR":0.00029133143,"MEAN_MOTION_DOT":0.00011983,"MEAN_MOTION_DDOT":0},{"OBJECT_NAME":"LEMUR-2-NIMBUS2000","OBJECT_ID":"2024-022A","EPOCH":"2026-02-01T12:52:27.361920","MEAN_MOTION":15.35359646,"ECCENTRICITY":0.00085235,"INCLINATION":97.4247,"RA_OF_ASC_NODE":241.1414,"ARG_OF_PERICENTER":243.9741,"MEAN_ANOMALY":116.0626,"EPHEMERIS_TYPE":0,"CLASSIFICATION_TYPE":"U","NORAD_CAT_ID":58899,"ELEMENT_SET_NO":999,"REV_AT_EPOCH":11142,"BSTAR":0.00047256658,"MEAN_MOTION_DOT":0.00016182,"MEAN_MOTION_DDOT":0},{"OBJECT_NAME":"LEMUR-2-VALHALLA","OBJECT_ID":"2024-022B","EPOCH":"2026-02-01T13:48:22.268736","MEAN_MOTION":15.35133584,"ECCENTRICITY":0.0009189,"INCLINATION":97.4246,"RA_OF_ASC_NODE":241.2277,"ARG_OF_PERICENTER":238.4559,"MEAN_ANOMALY":121.5787,"EPHEMERIS_TYPE":0,"CLASSIFICATION_TYPE":"U","NORAD_CAT_ID":58900,"ELEMENT_SET_NO":999,"REV_AT_EPOCH":11143,"BSTAR":0.000463647,"MEAN_MOTION_DOT":0.00015763,"MEAN_MOTION_DDOT":0},{"OBJECT_NAME":"LEMUR-2-OBA-NI-JESU","OBJECT_ID":"2024-022D","EPOCH":"2026-02-01T20:28:52.997088","MEAN_MOTION":15.58786116,"ECCENTRICITY":0.00039562,"INCLINATION":97.411,"RA_OF_ASC_NODE":249.2514,"ARG_OF_PERICENTER":189.2025,"MEAN_ANOMALY":170.9159,"EPHEMERIS_TYPE":0,"CLASSIFICATION_TYPE":"U","NORAD_CAT_ID":58902,"ELEMENT_SET_NO":999,"REV_AT_EPOCH":11200,"BSTAR":0.00081950535,"MEAN_MOTION_DOT":0.00063526,"MEAN_MOTION_DDOT":0},{"OBJECT_NAME":"LEMUR-2-CAEL","OBJECT_ID":"2024-022E","EPOCH":"2026-02-01T19:40:29.303904","MEAN_MOTION":15.3624681,"ECCENTRICITY":0.00074755,"INCLINATION":97.4233,"RA_OF_ASC_NODE":242.1932,"ARG_OF_PERICENTER":218.194,"MEAN_ANOMALY":141.8775,"EPHEMERIS_TYPE":0,"CLASSIFICATION_TYPE":"U","NORAD_CAT_ID":58903,"ELEMENT_SET_NO":999,"REV_AT_EPOCH":11152,"BSTAR":0.00045633522,"MEAN_MOTION_DOT":0.00016069,"MEAN_MOTION_DDOT":0},{"OBJECT_NAME":"LEMUR-2-JOHNNYTRUONG","OBJECT_ID":"2024-043BA","EPOCH":"2026-02-01T22:13:45.939360","MEAN_MOTION":15.50361391,"ECCENTRICITY":0.00050512,"INCLINATION":97.5224,"RA_OF_ASC_NODE":177.4293,"ARG_OF_PERICENTER":317.5705,"MEAN_ANOMALY":42.5155,"EPHEMERIS_TYPE":0,"CLASSIFICATION_TYPE":"U","NORAD_CAT_ID":59146,"ELEMENT_SET_NO":999,"REV_AT_EPOCH":10701,"BSTAR":0.00054491326,"MEAN_MOTION_DOT":0.00030921,"MEAN_MOTION_DDOT":0},{"OBJECT_NAME":"LEMUR-2-TOMATOKECHUP","OBJECT_ID":"2024-149D","EPOCH":"2026-02-01T19:08:39.497568","MEAN_MOTION":15.32767312,"ECCENTRICITY":0.00020333,"INCLINATION":97.3914,"RA_OF_ASC_NODE":114.7643,"ARG_OF_PERICENTER":39.7061,"MEAN_ANOMALY":320.433,"EPHEMERIS_TYPE":0,"CLASSIFICATION_TYPE":"U","NORAD_CAT_ID":60471,"ELEMENT_SET_NO":999,"REV_AT_EPOCH":8140,"BSTAR":0.00034893193,"MEAN_MOTION_DOT":0.00010968,"MEAN_MOTION_DDOT":0},{"OBJECT_NAME":"LEMUR-2-STELLA","OBJECT_ID":"2024-149BT","EPOCH":"2026-02-01T18:50:00.087072","MEAN_MOTION":15.08424803,"ECCENTRICITY":0.00013883,"INCLINATION":97.6831,"RA_OF_ASC_NODE":114.9431,"ARG_OF_PERICENTER":123.5754,"MEAN_ANOMALY":236.5607,"EPHEMERIS_TYPE":0,"CLASSIFICATION_TYPE":"U","NORAD_CAT_ID":60533,"ELEMENT_SET_NO":999,"REV_AT_EPOCH":8006,"BSTAR":0.00074112406,"MEAN_MOTION_DOT":0.00011481,"MEAN_MOTION_DDOT":0},{"OBJECT_NAME":"LEMUR-2-MARHISYAM","OBJECT_ID":"2024-149BW","EPOCH":"2026-02-01T18:54:54.786240","MEAN_MOTION":15.08001204,"ECCENTRICITY":0.00019439,"INCLINATION":97.6974,"RA_OF_ASC_NODE":115.2447,"ARG_OF_PERICENTER":198.6212,"MEAN_ANOMALY":161.4945,"EPHEMERIS_TYPE":0,"CLASSIFICATION_TYPE":"U","NORAD_CAT_ID":60536,"ELEMENT_SET_NO":999,"REV_AT_EPOCH":8005,"BSTAR":0.00072402301,"MEAN_MOTION_DOT":0.00011085,"MEAN_MOTION_DDOT":0},{"OBJECT_NAME":"LEMUR-2-AHMED-ASRAR","OBJECT_ID":"2024-149DN","EPOCH":"2026-02-01T17:55:19.607808","MEAN_MOTION":15.09382576,"ECCENTRICITY":0.00035803,"INCLINATION":97.7093,"RA_OF_ASC_NODE":116.7997,"ARG_OF_PERICENTER":104.3089,"MEAN_ANOMALY":255.8538,"EPHEMERIS_TYPE":0,"CLASSIFICATION_TYPE":"U","NORAD_CAT_ID":60576,"ELEMENT_SET_NO":999,"REV_AT_EPOCH":8011,"BSTAR":0.00066730844,"MEAN_MOTION_DOT":0.00010605,"MEAN_MOTION_DDOT":0},{"OBJECT_NAME":"LEMUR-2-LLOYD","OBJECT_ID":"2024-149DP","EPOCH":"2026-02-01T19:07:52.838976","MEAN_MOTION":15.06269834,"ECCENTRICITY":0.00030968,"INCLINATION":97.6855,"RA_OF_ASC_NODE":114.1034,"ARG_OF_PERICENTER":239.956,"MEAN_ANOMALY":120.136,"EPHEMERIS_TYPE":0,"CLASSIFICATION_TYPE":"U","NORAD_CAT_ID":60577,"ELEMENT_SET_NO":999,"REV_AT_EPOCH":7999,"BSTAR":0.00063554231,"MEAN_MOTION_DOT":9.275e-5,"MEAN_MOTION_DDOT":0},{"OBJECT_NAME":"LEMUR-2-SQUIRRELCOMM","OBJECT_ID":"2024-149DQ","EPOCH":"2026-02-01T17:43:18.930720","MEAN_MOTION":15.05274827,"ECCENTRICITY":0.00067021,"INCLINATION":97.6826,"RA_OF_ASC_NODE":114.2114,"ARG_OF_PERICENTER":141.6719,"MEAN_ANOMALY":218.4985,"EPHEMERIS_TYPE":0,"CLASSIFICATION_TYPE":"U","NORAD_CAT_ID":60578,"ELEMENT_SET_NO":999,"REV_AT_EPOCH":8001,"BSTAR":0.00048162157,"MEAN_MOTION_DOT":6.828e-5,"MEAN_MOTION_DDOT":0},{"OBJECT_NAME":"LEMUR-2-SIERRINI","OBJECT_ID":"2024-149DR","EPOCH":"2026-02-01T18:46:31.303200","MEAN_MOTION":15.07667958,"ECCENTRICITY":0.00046004,"INCLINATION":97.6938,"RA_OF_ASC_NODE":115.0625,"ARG_OF_PERICENTER":276.8333,"MEAN_ANOMALY":83.2371,"EPHEMERIS_TYPE":0,"CLASSIFICATION_TYPE":"U","NORAD_CAT_ID":60579,"ELEMENT_SET_NO":999,"REV_AT_EPOCH":8003,"BSTAR":0.00074700404,"MEAN_MOTION_DOT":0.00011338,"MEAN_MOTION_DDOT":0},{"OBJECT_NAME":"LEMUR-2-WILSON","OBJECT_ID":"2025-009CP","EPOCH":"2026-02-01T19:30:00.027648","MEAN_MOTION":14.94442224,"ECCENTRICITY":0.00044159,"INCLINATION":97.7134,"RA_OF_ASC_NODE":113.6685,"ARG_OF_PERICENTER":122.4065,"MEAN_ANOMALY":237.7583,"EPHEMERIS_TYPE":0,"CLASSIFICATION_TYPE":"U","NORAD_CAT_ID":62694,"ELEMENT_SET_NO":999,"REV_AT_EPOCH":5713,"BSTAR":0.00024129464,"MEAN_MOTION_DOT":2.545e-5,"MEAN_MOTION_DDOT":0},{"OBJECT_NAME":"LEMUR-2-STAR-FOX","OBJECT_ID":"2025-009CR","EPOCH":"2026-02-01T19:14:49.004448","MEAN_MOTION":15.00112218,"ECCENTRICITY":0.00010257,"INCLINATION":97.7163,"RA_OF_ASC_NODE":115.5495,"ARG_OF_PERICENTER":79.0421,"MEAN_ANOMALY":281.0918,"EPHEMERIS_TYPE":0,"CLASSIFICATION_TYPE":"U","NORAD_CAT_ID":62696,"ELEMENT_SET_NO":999,"REV_AT_EPOCH":5724,"BSTAR":0.00064941757,"MEAN_MOTION_DOT":8.045e-5,"MEAN_MOTION_DDOT":0}]
