LEMUR-2-JK0903EM1407    
1 58336U 23174CJ  26032.93670143  .00022078  00000+0  47366-3 0  9995
2 58336  97.3975 120.3296 0005132 240.5161 119.5576 15.44727150124805
LEMUR-2-MJR092620       
1 58340U 23174CN  26032.93743590  .00011983  00000+0  29133-3 0  9992
2 58340  97.4043 120.8719 0005833 240.6028 119.4637 15.41116369124799
LEMUR-2-NIMBUS2000      
1 58899U 24022A   26032.53642780  .00016182  00000+0  47257-3 0  9992
2 58899  97.4247 241.1414 0008523 243.9741 116.0626 15.35359646111427
LEMUR-2-VALHALLA        
1 58900U 24022B   26032.57525774  .00015763  00000+0  46365-3 0  9995
2 58900  97.4246 241.2277 0009189 238.4559 121.5787 15.35133584111433
LEMUR-2-OBA-NI-JESU     
1 58902U 24022D   26032.85339117  .00063526  00000+0  81951-3 0  9992
2 58902  97.4110 249.2514 0003956 189.2025 170.9159 15.58786116112009
LEMUR-2-CAEL            
1 58903U 24022E   26032.81978361  .00016069  00000+0  45634-3 0  9997
2 58903  97.4233 242.1932 0007475 218.1940 141.8775 15.36246810111525
LEMUR-2-JOHNNYTRUONG    
1 59146U 24043BA  26032.92622615  .00030921  00000+0  54491-3 0  9994
2 59146  97.5224 177.4293 0005051 317.5705  42.5155 15.50361391107013
LEMUR-2-TOMATOKECHUP    
1 60471U 24149D   26032.79767937  .00010968  00000+0  34893-3 0  9999
2 60471  97.3914 114.7643 0002033  39.7061 320.4330 15.32767312 81408
LEMUR-2-STELLA          
1 60533U 24149BT  26032.78472323  .00011481  00000+0  74112-3 0  9998
2 60533  97.6831 114.9431 0001388 123.5754 236.5607 15.08424803 80061
LEMUR-2-MARHISYAM       
1 60536U 24149BW  26032.78813410  .00011085  00000+0  72402-3 0  9997
2 60536  97.6974 115.2447 0001943 198.6212 161.4945 15.08001204 80058
LEMUR-2-AHMED-ASRAR     
1 60576U 24149DN  26032.74675472  .00010605  00000+0  66731-3 0  9996
2 60576  97.7093 116.7997 0003580 104.3089 255.8538 15.09382576 80114
LEMUR-2-LLOYD           
1 60577U 24149DP  26032.79713934  .00009275  00000+0  63554-3 0  9999
2 60577  97.6855 114.1034 0003096 239.9560 120.1360 15.06269834 79994
LEMUR-2-SQUIRRELCOMM    
1 60578U 24149DQ  26032.73841355  .00006828  00000+0  48162-3 0  9992
2 60578  97.6826 114.2114 0006702 141.6719 218.4985 15.05274827 80011
LEMUR-2-SIERRINI        
1 60579U 24149DR  26032.78230675  .00011338  00000+0  74700-3 0  9994
2 60579  97.6938 115.0625 0004600 276.8333  83.2371 15.07667958 80032
LEMUR-2-WILSON          
1 62694U 25009CP  26032.81250032  .00002545  00000+0  24129-3 0  9993
2 62694  97.7134 113.6685 0004415 122.4065 237.7583 14.94442224 57131
LEMUR-2-STAR-FOX        
1 62696U 25009CR  26032.80195607  .00008045  00000+0  64942-3 0  9998
2 62696  97.7163 115.5495 0001025  79.0421 281.0918 15.00112218 57243
